STARLINK-35871          
1 66566U 25268K   25339.91670139 -.01950896  00000+0 -21914-1 0  9997
2 66566  42.9997 161.2689 0001710 278.6052 139.2544 15.64959358  3571
STARLINK-35825          
1 66567U 25268L   25339.91670139 -.01949336  00000+0 -21894-1 0  9992
2 66567  42.9997 161.2641 0001731 279.2158 140.5599 15.64958914  3579
STARLINK-35803          
1 66568U 25268M   25339.91670139 -.01947091  00000+0 -21868-1 0  9990
2 66568  42.9997 161.2586 0001680 280.7195 140.9745 15.64957126  3570
STARLINK-35835          
1 66569U 25268N   25339.91670139 -.01944696  00000+0 -21837-1 0  9995
2 66569  42.9996 161.2539 0001679 280.1081 143.5013 15.64956935  3578
STARLINK-35834          
1 66570U 25268P   25339.91670139 -.01951786  00000+0 -21924-1 0  9992
2 66570  42.9997 161.2490 0001538 278.4748 147.0495 15.64962728  3571
STARLINK-35836          
1 66571U 25268Q   25339.91670139 -.01954181  00000+0 -21953-1 0  9997
2 66571  42.9998 161.2444 0001614 280.7227 146.7196 15.64963219  3575
STARLINK-35870          
1 66572U 25268R   25339.91670139 -.01958063  00000+0 -22001-1 0  9996
2 66572  42.9998 161.2402 0001645 279.3103 150.0491 15.64965446  3571
STARLINK-35650          
1 66573U 25268S   25339.91670139 -.01951778  00000+0 -21923-1 0  9995
2 66573  43.0000 161.2343 0001649 279.9149 151.3607 15.64962371  3579
STARLINK-35812          
1 66574U 25268T   25339.91670139 -.01946499  00000+0 -21860-1 0  9990
2 66574  43.0000 161.2294 0001697 279.9675 153.2292 15.64956622  3575
STARLINK-35810          
1 66575U 25268U   25339.91670139 -.01949670  00000+0 -21899-1 0  9997
2 66575  42.9999 161.2247 0001651 279.5515 155.5604 15.64959710  3571
STARLINK-35814          
1 66576U 25268V   25339.91670139 -.01947936  00000+0 -21877-1 0  9997
2 66576  42.9999 161.2202 0001613 279.3649 157.6631 15.64959289  3571
STARLINK-35815          
1 66577U 25268W   25339.91670139 -.01946283  00000+0 -21857-1 0  9990
2 66577  42.9999 161.2153 0001671 281.3132 157.6332 15.64957356  3572
