CCSDS_OMM_VERS = 2.0
CREATION_DATE  = 
ORIGINATOR     = 

OBJECT_NAME    = STARLINK-35871
OBJECT_ID      = 2025-268K
CENTER_NAME    = EARTH
REF_FRAME      = TEME
TIME_SYSTEM    = UTC
MEAN_ELEMENT_THEORY = SGP/SGP4

EPOCH          = 2025-12-05T22:00:03.000096
MEAN_MOTION    = 15.64959358
ECCENTRICITY   = .00017106
INCLINATION    = 42.9997
RA_OF_ASC_NODE = 161.2689
ARG_OF_PERICENTER = 278.6052
MEAN_ANOMALY   = 139.2544

EPHEMERIS_TYPE = 0
CLASSIFICATION_TYPE = U
NORAD_CAT_ID   = 66566
ELEMENT_SET_NO = 999
REV_AT_EPOCH   = 357
BSTAR          = -.21913933E-1
MEAN_MOTION_DOT = -.1950896E-1
MEAN_MOTION_DDOT = 0

CCSDS_OMM_VERS = 2.0
CREATION_DATE  = 
ORIGINATOR     = 

OBJECT_NAME    = STARLINK-35825
OBJECT_ID      = 2025-268L
CENTER_NAME    = EARTH
REF_FRAME      = TEME
TIME_SYSTEM    = UTC
MEAN_ELEMENT_THEORY = SGP/SGP4

EPOCH          = 2025-12-05T22:00:03.000096
MEAN_MOTION    = 15.64958914
ECCENTRICITY   = .00017317
INCLINATION    = 42.9997
RA_OF_ASC_NODE = 161.2641
ARG_OF_PERICENTER = 279.2158
MEAN_ANOMALY   = 140.5599

EPHEMERIS_TYPE = 0
CLASSIFICATION_TYPE = U
NORAD_CAT_ID   = 66567
ELEMENT_SET_NO = 999
REV_AT_EPOCH   = 357
BSTAR          = -.21894251E-1
MEAN_MOTION_DOT = -.1949336E-1
MEAN_MOTION_DDOT = 0

CCSDS_OMM_VERS = 2.0
CREATION_DATE  = 
ORIGINATOR     = 

OBJECT_NAME    = STARLINK-35803
OBJECT_ID      = 2025-268M
CENTER_NAME    = EARTH
REF_FRAME      = TEME
TIME_SYSTEM    = UTC
MEAN_ELEMENT_THEORY = SGP/SGP4

EPOCH          = 2025-12-05T22:00:03.000096
MEAN_MOTION    = 15.64957126
ECCENTRICITY   = .00016808
INCLINATION    = 42.9997
RA_OF_ASC_NODE = 161.2586
ARG_OF_PERICENTER = 280.7195
MEAN_ANOMALY   = 140.9745

EPHEMERIS_TYPE = 0
CLASSIFICATION_TYPE = U
NORAD_CAT_ID   = 66568
ELEMENT_SET_NO = 999
REV_AT_EPOCH   = 357
BSTAR          = -.21867723E-1
MEAN_MOTION_DOT = -.1947091E-1
MEAN_MOTION_DDOT = 0

CCSDS_OMM_VERS = 2.0
CREATION_DATE  = 
ORIGINATOR     = 

OBJECT_NAME    = STARLINK-35835
OBJECT_ID      = 2025-268N
CENTER_NAME    = EARTH
REF_FRAME      = TEME
TIME_SYSTEM    = UTC
MEAN_ELEMENT_THEORY = SGP/SGP4

EPOCH          = 2025-12-05T22:00:03.000096
MEAN_MOTION    = 15.64956935
ECCENTRICITY   = .00016791
INCLINATION    = 42.9996
RA_OF_ASC_NODE = 161.2539
ARG_OF_PERICENTER = 280.1081
MEAN_ANOMALY   = 143.5013

EPHEMERIS_TYPE = 0
CLASSIFICATION_TYPE = U
NORAD_CAT_ID   = 66569
ELEMENT_SET_NO = 999
REV_AT_EPOCH   = 357
BSTAR          = -.21837419E-1
MEAN_MOTION_DOT = -.1944696E-1
MEAN_MOTION_DDOT = 0

CCSDS_OMM_VERS = 2.0
CREATION_DATE  = 
ORIGINATOR     = 

OBJECT_NAME    = STARLINK-35834
OBJECT_ID      = 2025-268P
CENTER_NAME    = EARTH
REF_FRAME      = TEME
TIME_SYSTEM    = UTC
MEAN_ELEMENT_THEORY = SGP/SGP4

EPOCH          = 2025-12-05T22:00:03.000096
MEAN_MOTION    = 15.64962728
ECCENTRICITY   = .00015383
INCLINATION    = 42.9997
RA_OF_ASC_NODE = 161.2490
ARG_OF_PERICENTER = 278.4748
MEAN_ANOMALY   = 147.0495

EPHEMERIS_TYPE = 0
CLASSIFICATION_TYPE = U
NORAD_CAT_ID   = 66570
ELEMENT_SET_NO = 999
REV_AT_EPOCH   = 357
BSTAR          = -.21923957E-1
MEAN_MOTION_DOT = -.1951786E-1
MEAN_MOTION_DDOT = 0

CCSDS_OMM_VERS = 2.0
CREATION_DATE  = 
ORIGINATOR     = 

OBJECT_NAME    = STARLINK-35836
OBJECT_ID      = 2025-268Q
CENTER_NAME    = EARTH
REF_FRAME      = TEME
TIME_SYSTEM    = UTC
MEAN_ELEMENT_THEORY = SGP/SGP4

EPOCH          = 2025-12-05T22:00:03.000096
MEAN_MOTION    = 15.64963219
ECCENTRICITY   = .00016142
INCLINATION    = 42.9998
RA_OF_ASC_NODE = 161.2444
ARG_OF_PERICENTER = 280.7227
MEAN_ANOMALY   = 146.7196

EPHEMERIS_TYPE = 0
CLASSIFICATION_TYPE = U
NORAD_CAT_ID   = 66571
ELEMENT_SET_NO = 999
REV_AT_EPOCH   = 357
BSTAR          = -.21953318E-1
MEAN_MOTION_DOT = -.1954181E-1
MEAN_MOTION_DDOT = 0

CCSDS_OMM_VERS = 2.0
CREATION_DATE  = 
ORIGINATOR     = 

OBJECT_NAME    = STARLINK-35870
OBJECT_ID      = 2025-268R
CENTER_NAME    = EARTH
REF_FRAME      = TEME
TIME_SYSTEM    = UTC
MEAN_ELEMENT_THEORY = SGP/SGP4

EPOCH          = 2025-12-05T22:00:03.000096
MEAN_MOTION    = 15.64965446
ECCENTRICITY   = .00016459
INCLINATION    = 42.9998
RA_OF_ASC_NODE = 161.2402
ARG_OF_PERICENTER = 279.3103
MEAN_ANOMALY   = 150.0491

EPHEMERIS_TYPE = 0
CLASSIFICATION_TYPE = U
NORAD_CAT_ID   = 66572
ELEMENT_SET_NO = 999
REV_AT_EPOCH   = 357
BSTAR          = -.2200053E-1
MEAN_MOTION_DOT = -.1958063E-1
MEAN_MOTION_DDOT = 0

CCSDS_OMM_VERS = 2.0
CREATION_DATE  = 
ORIGINATOR     = 

OBJECT_NAME    = STARLINK-35650
OBJECT_ID      = 2025-268S
CENTER_NAME    = EARTH
REF_FRAME      = TEME
TIME_SYSTEM    = UTC
MEAN_ELEMENT_THEORY = SGP/SGP4

EPOCH          = 2025-12-05T22:00:03.000096
MEAN_MOTION    = 15.64962371
ECCENTRICITY   = .00016494
INCLINATION    = 43.0000
RA_OF_ASC_NODE = 161.2343
ARG_OF_PERICENTER = 279.9149
MEAN_ANOMALY   = 151.3607

EPHEMERIS_TYPE = 0
CLASSIFICATION_TYPE = U
NORAD_CAT_ID   = 66573
ELEMENT_SET_NO = 999
REV_AT_EPOCH   = 357
BSTAR          = -.2192311E-1
MEAN_MOTION_DOT = -.1951778E-1
MEAN_MOTION_DDOT = 0

CCSDS_OMM_VERS = 2.0
CREATION_DATE  = 
ORIGINATOR     = 

OBJECT_NAME    = STARLINK-35812
OBJECT_ID      = 2025-268T
CENTER_NAME    = EARTH
REF_FRAME      = TEME
TIME_SYSTEM    = UTC
MEAN_ELEMENT_THEORY = SGP/SGP4

EPOCH          = 2025-12-05T22:00:03.000096
MEAN_MOTION    = 15.64956622
ECCENTRICITY   = .00016973
INCLINATION    = 43.0000
RA_OF_ASC_NODE = 161.2294
ARG_OF_PERICENTER = 279.9675
MEAN_ANOMALY   = 153.2292

EPHEMERIS_TYPE = 0
CLASSIFICATION_TYPE = U
NORAD_CAT_ID   = 66574
ELEMENT_SET_NO = 999
REV_AT_EPOCH   = 357
BSTAR          = -.21860484E-1
MEAN_MOTION_DOT = -.1946499E-1
MEAN_MOTION_DDOT = 0

CCSDS_OMM_VERS = 2.0
CREATION_DATE  = 
ORIGINATOR     = 

OBJECT_NAME    = STARLINK-35810
OBJECT_ID      = 2025-268U
CENTER_NAME    = EARTH
REF_FRAME      = TEME
TIME_SYSTEM    = UTC
MEAN_ELEMENT_THEORY = SGP/SGP4

EPOCH          = 2025-12-05T22:00:03.000096
MEAN_MOTION    = 15.64959710
ECCENTRICITY   = .00016517
INCLINATION    = 42.9999
RA_OF_ASC_NODE = 161.2247
ARG_OF_PERICENTER = 279.5515
MEAN_ANOMALY   = 155.5604

EPHEMERIS_TYPE = 0
CLASSIFICATION_TYPE = U
NORAD_CAT_ID   = 66575
ELEMENT_SET_NO = 999
REV_AT_EPOCH   = 357
BSTAR          = -.21898576E-1
MEAN_MOTION_DOT = -.194967E-1
MEAN_MOTION_DDOT = 0

CCSDS_OMM_VERS = 2.0
CREATION_DATE  = 
ORIGINATOR     = 

OBJECT_NAME    = STARLINK-35814
OBJECT_ID      = 2025-268V
CENTER_NAME    = EARTH
REF_FRAME      = TEME
TIME_SYSTEM    = UTC
MEAN_ELEMENT_THEORY = SGP/SGP4

EPOCH          = 2025-12-05T22:00:03.000096
MEAN_MOTION    = 15.64959289
ECCENTRICITY   = .00016135
INCLINATION    = 42.9999
RA_OF_ASC_NODE = 161.2202
ARG_OF_PERICENTER = 279.3649
MEAN_ANOMALY   = 157.6631

EPHEMERIS_TYPE = 0
CLASSIFICATION_TYPE = U
NORAD_CAT_ID   = 66576
ELEMENT_SET_NO = 999
REV_AT_EPOCH   = 357
BSTAR          = -.21877234E-1
MEAN_MOTION_DOT = -.1947936E-1
MEAN_MOTION_DDOT = 0

CCSDS_OMM_VERS = 2.0
CREATION_DATE  = 
ORIGINATOR     = 

OBJECT_NAME    = STARLINK-35815
OBJECT_ID      = 2025-268W
CENTER_NAME    = EARTH
REF_FRAME      = TEME
TIME_SYSTEM    = UTC
MEAN_ELEMENT_THEORY = SGP/SGP4

EPOCH          = 2025-12-05T22:00:03.000096
MEAN_MOTION    = 15.64957356
ECCENTRICITY   = .0001671
INCLINATION    = 42.9999
RA_OF_ASC_NODE = 161.2153
ARG_OF_PERICENTER = 281.3132
MEAN_ANOMALY   = 157.6332

EPHEMERIS_TYPE = 0
CLASSIFICATION_TYPE = U
NORAD_CAT_ID   = 66577
ELEMENT_SET_NO = 999
REV_AT_EPOCH   = 357
BSTAR          = -.21857336E-1
MEAN_MOTION_DOT = -.1946283E-1
MEAN_MOTION_DDOT = 0

